IRIDIUM 26              
1 24903U 97043A   25326.23126199  .00000503  00000+0  16226-3 0  9999
2 24903  86.3977  44.1803 0001940  94.1950 265.9469 14.37304602479441
IRIDIUM 22              
1 24907U 97043E   25326.22273712  .00000450  00000+0  14801-3 0  9994
2 24907  86.3978  47.8592 0002080  97.9641 262.1792 14.36100823479452
DUMMY MASS 1            
1 24925U 97048A   25326.28333308  .00000562  00000+0  59465-4 0  9993
2 24925  86.3353  62.1706 0004875 322.1814  37.9068 14.87156100528628
DUMMY MASS 2            
1 24926U 97048B   25326.33917970  .00000566  00000+0  60230-4 0  9999
2 24926  86.3353  63.7821 0006032 334.5171  25.5756 14.86906805528401
IRIDIUM 29              
1 24944U 97051A   25326.39748627  .00000587  00000+0  19290-3 0  9992
2 24944  86.3949  77.4836 0002250  97.0654 263.0799 14.36635966475987
IRIDIUM 33              
1 24946U 97051C   25326.41528374  .00000441  00000+0  14798-3 0  9999
2 24946  86.3864  76.7515 0005822 284.5527  75.5024 14.35015721475438
IRIDIUM 28              
1 24948U 97051E   25326.34082625  .00000541  00000+0  17414-3 0  9996
2 24948  86.3956  74.9319 0001542  91.3162 268.8212 14.37536836476566
IRIDIUM 36              
1 24967U 97056C   25326.41864144  .00000535  00000+0  17121-3 0  9992
2 24967  86.3943 106.5294 0001840  96.7294 263.4114 14.37757044474952
